[{"OBJECT_NAME":"PHISAT 2","OBJECT_ID":"2024-149C","EPOCH":"2026-03-09T18:55:12.732384","MEAN_MOTION":15.29548632,"ECCENTRICITY":0.00011753,"INCLINATION":97.3806,"RA_OF_ASC_NODE":148.6498,"ARG_OF_PERICENTER":168.623,"MEAN_ANOMALY":191.5037,"EPHEMERIS_TYPE":0,"CLASSIFICATION_TYPE":"U","NORAD_CAT_ID":60470,"ELEMENT_SET_NO":999,"REV_AT_EPOCH":8679,"BSTAR":0.00031420974,"MEAN_MOTION_DOT":8.925e-5,"MEAN_MOTION_DDOT":0},{"OBJECT_NAME":"STARLINK-34861","OBJECT_ID":"2025-254W","EPOCH":"2026-03-09T17:31:27.825024","MEAN_MOTION":15.30208665,"ECCENTRICITY":9.28e-5,"INCLINATION":53.1574,"RA_OF_ASC_NODE":229.9647,"ARG_OF_PERICENTER":64.8458,"MEAN_ANOMALY":295.2639,"EPHEMERIS_TYPE":0,"CLASSIFICATION_TYPE":"U","NORAD_CAT_ID":66368,"ELEMENT_SET_NO":999,"REV_AT_EPOCH":1901,"BSTAR":0.0010224097,"MEAN_MOTION_DOT":0.00030052,"MEAN_MOTION_DDOT":0}]
